
1 43257U 18030J   25161.84008623  .00000001  00000-0 -65413-5 0  9995
2 43257  86.3958  85.7187 0002344  78.5159 281.6300 14.34217876376937

1 43258U 18030K   25162.10013286  .00000064  00000-0  15942-4 0  9996
2 43258  86.3964  85.6882 0002465  74.3599 285.7868 14.34217846376933

1 43478U 18047C   25161.76377102  .00000271  00000-0  74526-4 0  9992
2 43478  86.4497 243.6218 0002308 100.5428 259.6032 14.43281122371562

1 43479U 18047D   25162.14261860  .00000050  00000-0  10762-4 0  9996
2 43479  86.3972 243.3239 0002363  97.4203 262.7261 14.34217748369318

1 43480U 18047E   25162.21873010  .00000212  00000-0  68815-4 0  9994
2 43480  86.3974 243.2907 0002145  96.5066 263.6374 14.34218324369314

1 43481U 18047F   25161.66692432  .00000181  00000-0  57532-4 0  9999
2 43481  86.3976 243.6035 0002289 107.2967 252.8480 14.34218689369224

1 43482U 18047G   25161.68814376  .00000263  00000-0  72178-4 0  9999
2 43482  86.4496 243.5488 0002510 101.9943 258.1539 14.43281024371541

1 43569U 18061A   25161.54299086  .00000173  00000-0  54830-4 0  9996
2 43569  86.3994 212.0538 0002276  98.7865 261.3589 14.34218912360108
